[{"OBJECT_NAME":"GPM-CORE","OBJECT_ID":"2014-009C","EPOCH":"2026-03-09T23:15:36.630144","MEAN_MOTION":15.44720121,"ECCENTRICITY":0.00123946,"INCLINATION":64.9727,"RA_OF_ASC_NODE":280.5513,"ARG_OF_PERICENTER":266.0432,"MEAN_ANOMALY":93.9292,"EPHEMERIS_TYPE":0,"CLASSIFICATION_TYPE":"U","NORAD_CAT_ID":39574,"ELEMENT_SET_NO":999,"REV_AT_EPOCH":68248,"BSTAR":0.00019317886,"MEAN_MOTION_DOT":8.85e-5,"MEAN_MOTION_DDOT":0},{"OBJECT_NAME":"STARLINK-1771","OBJECT_ID":"2020-062BM","EPOCH":"2026-03-09T23:29:32.152704","MEAN_MOTION":15.46599985,"ECCENTRICITY":0.00025443,"INCLINATION":53.043,"RA_OF_ASC_NODE":344.5786,"ARG_OF_PERICENTER":249.4105,"MEAN_ANOMALY":110.6628,"EPHEMERIS_TYPE":0,"CLASSIFICATION_TYPE":"U","NORAD_CAT_ID":46384,"ELEMENT_SET_NO":999,"REV_AT_EPOCH":30478,"BSTAR":0.0015540489,"MEAN_MOTION_DOT":0.00079024,"MEAN_MOTION_DDOT":0}]
